[{"OBJECT_NAME":"STARLINK-30932","OBJECT_ID":"2023-191R","EPOCH":"2026-03-09T10:09:55.485504","MEAN_MOTION":15.27240316,"ECCENTRICITY":9.319e-5,"INCLINATION":42.9994,"RA_OF_ASC_NODE":104.6731,"ARG_OF_PERICENTER":208.9228,"MEAN_ANOMALY":151.1572,"EPHEMERIS_TYPE":0,"CLASSIFICATION_TYPE":"U","NORAD_CAT_ID":58523,"ELEMENT_SET_NO":999,"REV_AT_EPOCH":12538,"BSTAR":0.0042662008,"MEAN_MOTION_DOT":0.00117798,"MEAN_MOTION_DDOT":0},{"OBJECT_NAME":"COSMOS 1862","OBJECT_ID":"1987-055A","EPOCH":"2026-03-09T22:37:02.390592","MEAN_MOTION":15.30492139,"ECCENTRICITY":0.00097484,"INCLINATION":82.4856,"RA_OF_ASC_NODE":47.1862,"ARG_OF_PERICENTER":26.6325,"MEAN_ANOMALY":333.5414,"EPHEMERIS_TYPE":0,"CLASSIFICATION_TYPE":"U","NORAD_CAT_ID":18152,"ELEMENT_SET_NO":999,"REV_AT_EPOCH":8987,"BSTAR":0.00034125048,"MEAN_MOTION_DOT":0.00010107,"MEAN_MOTION_DDOT":0}]
